ONEWEB-0720             
1 55835U 23029AR  25211.88776084 -.00000212  00000+0 -56177-3 0  9996
2 55835  87.9234   8.8622 0002145  85.2163 274.9215 13.19724755116466
ONEWEB-0537             
1 56046U 23043A   25211.72744466 -.00000004  00000+0 -43978-4 0  9994
2 56046  87.9056 292.8369 0001770 100.2362 259.8969 13.16596065116666
ONEWEB-0538             
1 56047U 23043B   25211.72112075 -.00000055  00000+0 -17689-3 0  9995
2 56047  87.9047 292.8541 0001841  91.8790 268.2552 13.16593541116677
ONEWEB-0546             
1 56048U 23043C   25211.93644106 -.00000055  00000+0 -17830-3 0  9992
2 56048  87.9058 292.7888 0001455 114.2553 245.8730 13.16593919116691
ONEWEB-0547             
1 56049U 23043D   25211.76681473  .00000055  00000+0  10047-3 0  9993
2 56049  87.9271 308.0999 0001988  93.0070 267.1291 13.21824404115760
ONEWEB-0548             
1 56050U 23043E   25211.73378232 -.00000028  00000+0 -10710-3 0  9997
2 56050  87.9040 292.8594 0002411 106.5520 253.5875 13.16593206116663
ONEWEB-0549             
1 56051U 23043F   25211.83383013  .00000205  00000+0  46436-3 0  9991
2 56051  87.9271 308.1006 0001956  91.1215 269.0143 13.21823582115772
ONEWEB-0550             
1 56052U 23043G   25211.82123767  .00000044  00000+0  75720-4 0  9999
2 56052  87.9273 308.0969 0002051 104.2696 255.8666 13.21825750115770
ONEWEB-0551             
1 56053U 23043H   25211.81301812 -.00000067  00000+0 -21088-3 0  9992
2 56053  87.9081 323.3274 0002017  92.9860 267.1501 13.15547174114143
ONEWEB-0552             
1 56054U 23043J   25211.81492741  .00000023  00000+0  24391-4 0  9996
2 56054  87.9273 308.1072 0002202  94.2821 265.8565 13.21826550115772
ONEWEB-0553             
1 56055U 23043K   25211.79078005 -.00000075  00000+0 -22877-3 0  9992
2 56055  87.9048 292.8382 0001807 109.5782 250.5544 13.16595665116685
ONEWEB-0554             
1 56056U 23043L   25211.93011684  .00000051  00000+0  99442-4 0  9994
2 56056  87.9043 292.8375 0002213 104.4286 255.7091 13.16595475116681
ONEWEB-0555             
1 56057U 23043M   25211.74012288  .00000040  00000+0  70442-4 0  9992
2 56057  87.9048 292.8429 0001685 114.4569 245.6738 13.16593355116663
ONEWEB-0557             
1 56058U 23043N   25211.75436797  .00000037  00000+0  62262-4 0  9996
2 56058  87.9042 292.8611 0002613 128.5551 231.5814 13.16593863116663
ONEWEB-0558             
1 56059U 23043P   25211.80862583 -.00000021  00000+0 -81693-4 0  9993
2 56059  87.9271 308.1044 0001995  85.8595 274.2767 13.21824395115780
ONEWEB-0559             
1 56060U 23043Q   25211.79757798 -.00000033  00000+0 -11219-3 0  9993
2 56060  87.9272 308.0985 0002293  92.6041 267.5355 13.21826591115799
ONEWEB-0566             
1 56061U 23043R   25211.79127051 -.00000034  00000+0 -11484-3 0  9992
2 56061  87.9272 308.0977 0002122  90.8064 269.3313 13.21826800115772
