[{"OBJECT_NAME":"ONEWEB-0720","OBJECT_ID":"2023-029AR","EPOCH":"2025-07-30T21:18:22.536576","MEAN_MOTION":13.19724755,"ECCENTRICITY":0.0002145,"INCLINATION":87.9234,"RA_OF_ASC_NODE":8.8622,"ARG_OF_PERICENTER":85.2163,"MEAN_ANOMALY":274.9215,"EPHEMERIS_TYPE":0,"CLASSIFICATION_TYPE":"U","NORAD_CAT_ID":55835,"ELEMENT_SET_NO":999,"REV_AT_EPOCH":11646,"BSTAR":-0.00056177,"MEAN_MOTION_DOT":-2.12e-6,"MEAN_MOTION_DDOT":0},{"OBJECT_NAME":"ONEWEB-0537","OBJECT_ID":"2023-043A","EPOCH":"2025-07-30T17:27:31.218624","MEAN_MOTION":13.16596065,"ECCENTRICITY":0.000177,"INCLINATION":87.9056,"RA_OF_ASC_NODE":292.8369,"ARG_OF_PERICENTER":100.2362,"MEAN_ANOMALY":259.8969,"EPHEMERIS_TYPE":0,"CLASSIFICATION_TYPE":"U","NORAD_CAT_ID":56046,"ELEMENT_SET_NO":999,"REV_AT_EPOCH":11666,"BSTAR":-4.3978e-5,"MEAN_MOTION_DOT":-4.0e-8,"MEAN_MOTION_DDOT":0},{"OBJECT_NAME":"ONEWEB-0538","OBJECT_ID":"2023-043B","EPOCH":"2025-07-30T17:18:24.832800","MEAN_MOTION":13.16593541,"ECCENTRICITY":0.0001841,"INCLINATION":87.9047,"RA_OF_ASC_NODE":292.8541,"ARG_OF_PERICENTER":91.879,"MEAN_ANOMALY":268.2552,"EPHEMERIS_TYPE":0,"CLASSIFICATION_TYPE":"U","NORAD_CAT_ID":56047,"ELEMENT_SET_NO":999,"REV_AT_EPOCH":11667,"BSTAR":-0.00017689,"MEAN_MOTION_DOT":-5.5e-7,"MEAN_MOTION_DDOT":0},{"OBJECT_NAME":"ONEWEB-0546","OBJECT_ID":"2023-043C","EPOCH":"2025-07-30T22:28:28.507584","MEAN_MOTION":13.16593919,"ECCENTRICITY":0.0001455,"INCLINATION":87.9058,"RA_OF_ASC_NODE":292.7888,"ARG_OF_PERICENTER":114.2553,"MEAN_ANOMALY":245.873,"EPHEMERIS_TYPE":0,"CLASSIFICATION_TYPE":"U","NORAD_CAT_ID":56048,"ELEMENT_SET_NO":999,"REV_AT_EPOCH":11669,"BSTAR":-0.0001783,"MEAN_MOTION_DOT":-5.5e-7,"MEAN_MOTION_DDOT":0},{"OBJECT_NAME":"ONEWEB-0547","OBJECT_ID":"2023-043D","EPOCH":"2025-07-30T18:24:12.792672","MEAN_MOTION":13.21824404,"ECCENTRICITY":0.0001988,"INCLINATION":87.9271,"RA_OF_ASC_NODE":308.0999,"ARG_OF_PERICENTER":93.007,"MEAN_ANOMALY":267.1291,"EPHEMERIS_TYPE":0,"CLASSIFICATION_TYPE":"U","NORAD_CAT_ID":56049,"ELEMENT_SET_NO":999,"REV_AT_EPOCH":11576,"BSTAR":0.00010047,"MEAN_MOTION_DOT":5.5e-7,"MEAN_MOTION_DDOT":0},{"OBJECT_NAME":"ONEWEB-0548","OBJECT_ID":"2023-043E","EPOCH":"2025-07-30T17:36:38.792448","MEAN_MOTION":13.16593206,"ECCENTRICITY":0.0002411,"INCLINATION":87.904,"RA_OF_ASC_NODE":292.8594,"ARG_OF_PERICENTER":106.552,"MEAN_ANOMALY":253.5875,"EPHEMERIS_TYPE":0,"CLASSIFICATION_TYPE":"U","NORAD_CAT_ID":56050,"ELEMENT_SET_NO":999,"REV_AT_EPOCH":11666,"BSTAR":-0.0001071,"MEAN_MOTION_DOT":-2.8e-7,"MEAN_MOTION_DDOT":0},{"OBJECT_NAME":"ONEWEB-0549","OBJECT_ID":"2023-043F","EPOCH":"2025-07-30T20:00:42.923232","MEAN_MOTION":13.21823582,"ECCENTRICITY":0.0001956,"INCLINATION":87.9271,"RA_OF_ASC_NODE":308.1006,"ARG_OF_PERICENTER":91.1215,"MEAN_ANOMALY":269.0143,"EPHEMERIS_TYPE":0,"CLASSIFICATION_TYPE":"U","NORAD_CAT_ID":56051,"ELEMENT_SET_NO":999,"REV_AT_EPOCH":11577,"BSTAR":0.00046436,"MEAN_MOTION_DOT":2.05e-6,"MEAN_MOTION_DDOT":0},{"OBJECT_NAME":"ONEWEB-0550","OBJECT_ID":"2023-043G","EPOCH":"2025-07-30T19:42:34.934688","MEAN_MOTION":13.2182575,"ECCENTRICITY":0.0002051,"INCLINATION":87.9273,"RA_OF_ASC_NODE":308.0969,"ARG_OF_PERICENTER":104.2696,"MEAN_ANOMALY":255.8666,"EPHEMERIS_TYPE":0,"CLASSIFICATION_TYPE":"U","NORAD_CAT_ID":56052,"ELEMENT_SET_NO":999,"REV_AT_EPOCH":11577,"BSTAR":7.572e-5,"MEAN_MOTION_DOT":4.4e-7,"MEAN_MOTION_DDOT":0},{"OBJECT_NAME":"ONEWEB-0551","OBJECT_ID":"2023-043H","EPOCH":"2025-07-30T19:30:44.765568","MEAN_MOTION":13.15547174,"ECCENTRICITY":0.0002017,"INCLINATION":87.9081,"RA_OF_ASC_NODE":323.3274,"ARG_OF_PERICENTER":92.986,"MEAN_ANOMALY":267.1501,"EPHEMERIS_TYPE":0,"CLASSIFICATION_TYPE":"U","NORAD_CAT_ID":56053,"ELEMENT_SET_NO":999,"REV_AT_EPOCH":11414,"BSTAR":-0.00021088,"MEAN_MOTION_DOT":-6.7e-7,"MEAN_MOTION_DDOT":0},{"OBJECT_NAME":"ONEWEB-0552","OBJECT_ID":"2023-043J","EPOCH":"2025-07-30T19:33:29.728224","MEAN_MOTION":13.2182655,"ECCENTRICITY":0.0002202,"INCLINATION":87.9273,"RA_OF_ASC_NODE":308.1072,"ARG_OF_PERICENTER":94.2821,"MEAN_ANOMALY":265.8565,"EPHEMERIS_TYPE":0,"CLASSIFICATION_TYPE":"U","NORAD_CAT_ID":56054,"ELEMENT_SET_NO":999,"REV_AT_EPOCH":11577,"BSTAR":2.4391e-5,"MEAN_MOTION_DOT":2.3e-7,"MEAN_MOTION_DDOT":0},{"OBJECT_NAME":"ONEWEB-0553","OBJECT_ID":"2023-043K","EPOCH":"2025-07-30T18:58:43.396320","MEAN_MOTION":13.16595665,"ECCENTRICITY":0.0001807,"INCLINATION":87.9048,"RA_OF_ASC_NODE":292.8382,"ARG_OF_PERICENTER":109.5782,"MEAN_ANOMALY":250.5544,"EPHEMERIS_TYPE":0,"CLASSIFICATION_TYPE":"U","NORAD_CAT_ID":56055,"ELEMENT_SET_NO":999,"REV_AT_EPOCH":11668,"BSTAR":-0.00022877,"MEAN_MOTION_DOT":-7.5e-7,"MEAN_MOTION_DDOT":0},{"OBJECT_NAME":"ONEWEB-0554","OBJECT_ID":"2023-043L","EPOCH":"2025-07-30T22:19:22.094976","MEAN_MOTION":13.16595475,"ECCENTRICITY":0.0002213,"INCLINATION":87.9043,"RA_OF_ASC_NODE":292.8375,"ARG_OF_PERICENTER":104.4286,"MEAN_ANOMALY":255.7091,"EPHEMERIS_TYPE":0,"CLASSIFICATION_TYPE":"U","NORAD_CAT_ID":56056,"ELEMENT_SET_NO":999,"REV_AT_EPOCH":11668,"BSTAR":9.9442e-5,"MEAN_MOTION_DOT":5.1e-7,"MEAN_MOTION_DDOT":0},{"OBJECT_NAME":"ONEWEB-0555","OBJECT_ID":"2023-043M","EPOCH":"2025-07-30T17:45:46.616832","MEAN_MOTION":13.16593355,"ECCENTRICITY":0.0001685,"INCLINATION":87.9048,"RA_OF_ASC_NODE":292.8429,"ARG_OF_PERICENTER":114.4569,"MEAN_ANOMALY":245.6738,"EPHEMERIS_TYPE":0,"CLASSIFICATION_TYPE":"U","NORAD_CAT_ID":56057,"ELEMENT_SET_NO":999,"REV_AT_EPOCH":11666,"BSTAR":7.0442e-5,"MEAN_MOTION_DOT":4.0e-7,"MEAN_MOTION_DDOT":0},{"OBJECT_NAME":"ONEWEB-0557","OBJECT_ID":"2023-043N","EPOCH":"2025-07-30T18:06:17.392608","MEAN_MOTION":13.16593863,"ECCENTRICITY":0.0002613,"INCLINATION":87.9042,"RA_OF_ASC_NODE":292.8611,"ARG_OF_PERICENTER":128.5551,"MEAN_ANOMALY":231.5814,"EPHEMERIS_TYPE":0,"CLASSIFICATION_TYPE":"U","NORAD_CAT_ID":56058,"ELEMENT_SET_NO":999,"REV_AT_EPOCH":11666,"BSTAR":6.2262e-5,"MEAN_MOTION_DOT":3.7e-7,"MEAN_MOTION_DDOT":0},{"OBJECT_NAME":"ONEWEB-0558","OBJECT_ID":"2023-043P","EPOCH":"2025-07-30T19:24:25.271712","MEAN_MOTION":13.21824395,"ECCENTRICITY":0.0001995,"INCLINATION":87.9271,"RA_OF_ASC_NODE":308.1044,"ARG_OF_PERICENTER":85.8595,"MEAN_ANOMALY":274.2767,"EPHEMERIS_TYPE":0,"CLASSIFICATION_TYPE":"U","NORAD_CAT_ID":56059,"ELEMENT_SET_NO":999,"REV_AT_EPOCH":11578,"BSTAR":-8.1693e-5,"MEAN_MOTION_DOT":-2.1e-7,"MEAN_MOTION_DDOT":0},{"OBJECT_NAME":"ONEWEB-0559","OBJECT_ID":"2023-043Q","EPOCH":"2025-07-30T19:08:30.737472","MEAN_MOTION":13.21826591,"ECCENTRICITY":0.0002293,"INCLINATION":87.9272,"RA_OF_ASC_NODE":308.0985,"ARG_OF_PERICENTER":92.6041,"MEAN_ANOMALY":267.5355,"EPHEMERIS_TYPE":0,"CLASSIFICATION_TYPE":"U","NORAD_CAT_ID":56060,"ELEMENT_SET_NO":999,"REV_AT_EPOCH":11579,"BSTAR":-0.00011219,"MEAN_MOTION_DOT":-3.3e-7,"MEAN_MOTION_DDOT":0},{"OBJECT_NAME":"ONEWEB-0566","OBJECT_ID":"2023-043R","EPOCH":"2025-07-30T18:59:25.772064","MEAN_MOTION":13.218268,"ECCENTRICITY":0.0002122,"INCLINATION":87.9272,"RA_OF_ASC_NODE":308.0977,"ARG_OF_PERICENTER":90.8064,"MEAN_ANOMALY":269.3313,"EPHEMERIS_TYPE":0,"CLASSIFICATION_TYPE":"U","NORAD_CAT_ID":56061,"ELEMENT_SET_NO":999,"REV_AT_EPOCH":11577,"BSTAR":-0.00011484,"MEAN_MOTION_DOT":-3.4e-7,"MEAN_MOTION_DDOT":0}]
